COSMOS 1933             
1 18958U 88020A   25359.81188870  .00004578  00000+0  22875-3 0  9994
2 18958  82.5139 323.9615 0006397  93.4178 266.7787 15.17216386 39024
SL-3 R/B                
1 19046U 88032B   25359.84054211  .00005623  00000+0  27033-3 0  9993
2 19046  97.5099 338.4719 0027969 128.6833 231.6909 15.18870068 40895
SL-16 R/B               
1 19120U 88039B   25359.78276046 -.00000081  00000+0 -15457-4 0  9991
2 19120  71.0128 224.8208 0019541  93.9502 266.3858 14.19599580947894
COSMOS 1953             
1 19210U 88050A   25351.75027580  .00004793  00000+0  17925-3 0  9993
2 19210  82.5093 240.5536 0013540  56.0210 304.2313 15.26995692 25270
SL-8 R/B                
1 19257U 88053B   25359.82105874  .00000261  00000+0  92975-4 0  9991
2 19257  74.0467 248.6111 0018959  87.8125 339.1957 14.38866996965973
COSMOS 1975             
1 19573U 88093A   25359.62845561  .00008296  00000+0  31444-3 0  9997
2 19573  82.5191 191.9240 0013035  72.6432 287.6231 15.26649281  8107
SL-14 R/B               
1 19574U 88093B   25359.85332931  .00000596  00000+0  66008-4 0  9995
2 19574  82.5317 111.3616 0019252 283.3844 196.7613 14.85563150990070
SL-16 R/B               
1 19650U 88102B   25359.80858954  .00000093  00000+0  70880-4 0  9999
2 19650  71.0007 306.9447 0012281 129.4918 230.7294 14.16142406916438
INTERCOSMOS 24          
1 20261U 89080A   25359.85261803  .00000752  00000+0  21216-3 0  9991
2 20261  82.6054 152.4278 1188999 104.1147 269.4764 12.59460437657502
SL-14 R/B               
1 20262U 89080C   25359.70511398  .00000325  00000+0  94609-4 0  9996
2 20262  82.5914 220.6973 1230411 353.9611   4.7716 12.50423203650909
DELTA 1 R/B             
1 20323U 89089B   25359.60785476  .00000375  00000+0  10157-3 0  9992
2 20323  97.0742 213.8054 0069088 357.9796   2.1112 14.50582425884992
ARIANE 40 R/B           
1 20443U 90005H   25359.73465052  .00000302  00000+0  10984-3 0  9992
2 20443  98.3226  57.5444 0011160  70.5477 289.6916 14.39807820882161
